STARLINK-36835          
1 67863U 26034P   26175.02568814  .00011313  00000+0  39344-3 0  9994
2 67863  53.1604  70.5036 0001081 102.6390 257.4732 15.30203953 20310
STARLINK-36831          
1 67864U 26034Q   26175.02252079  .00010848  00000+0  37773-3 0  9994
2 67864  53.1593  70.4863 0001082  99.3267 260.7857 15.30211204 20314
STARLINK-36738          
1 67865U 26034R   26174.95087446  .00016391  00000+0  56410-3 0  9998
2 67865  53.1570  70.7473 0000943  97.0006 263.1102 15.30212395 20302
STARLINK-36780          
1 67866U 26034S   26175.01302370  .00024324  00000+0  83088-3 0  9999
2 67866  53.1570  70.4245 0001366  85.0552 275.0605 15.30192787 20313
STARLINK-36761          
1 67867U 26034T   26175.00985866  .00005635  00000+0  20225-3 0  9994
2 67867  53.1582  70.4043 0001265  96.1629 263.9516 15.30199111 20314
STARLINK-36762          
1 67868U 26034U   26175.00563843  .00029722  00000+0  10115-2 0  9991
2 67868  53.1579  70.3780 0000967  76.8579 283.2529 15.30204208 20318
STARLINK-36779          
1 67869U 26034V   26175.02479268  .00036340  00000+0  10811-2 0  9998
2 67869  53.1594  67.6652 0001145  77.8258 282.2873 15.34412357 20341
STARLINK-36770          
1 67870U 26034W   26174.99824986  .00027596  00000+0  94011-3 0  9994
2 67870  53.1584  70.3320 0000939 131.3877 228.7204 15.30210161 20313
STARLINK-36769          
1 67871U 26034X   26174.99613865  .00013645  00000+0  47182-3 0  9994
2 67871  53.1562  70.3115 0000679  88.5515 271.5563 15.30211506 20313
STARLINK-36786          
1 67872U 26034Y   26175.02716603 -.00015603  00000+0 -49212-3 0  9998
2 67872  53.1606  69.8029 0001222  81.7412 278.3728 15.31697989 20329
STARLINK-36783          
1 67873U 26034Z   26175.02268935  .00031384  00000+0  93581-3 0  9999
2 67873  53.1584  67.6437 0000961 108.4495 251.6612 15.34410221 20355
STARLINK-36730          
1 67874U 26034AA  26175.01848315  .00032961  00000+0  98229-3 0  9991
2 67874  53.1584  67.6201 0001059  86.2775 273.8348 15.34402746 20353
STARLINK-36727          
1 67875U 26034AB  26174.99449868  .00026308  00000+0  85617-3 0  9993
2 67875  53.1582  69.5949 0000963  81.1050 279.0060 15.31713512 20324
STARLINK-36743          
1 67876U 26034AC  26175.03096809  .00029248  00000+0  99560-3 0  9991
2 67876  53.1600  70.5371 0001186  82.1965 277.9170 15.30204179 20312
STARLINK-36784          
1 67877U 26034AD  26174.99711999  .00018091  00000+0  63736-3 0  9990
2 67877  53.1569  71.0525 0001016  79.4217 280.6898 15.29374561 20303
STARLINK-36689          
1 67878U 26034AE  26175.02146552  .00009085  00000+0  31845-3 0  9992
2 67878  53.1576  70.4770 0001067  89.4582 270.6541 15.30203458 20312
STARLINK-36818          
1 67879U 26035A   26174.79064244  .00027053  00000+0  83697-3 0  9991
2 67879  97.2831 107.8250 0001597  96.3033 263.8392 15.33456725 20240
STARLINK-36821          
1 67880U 26035B   26174.52690535  .00017487  00000+0  54275-3 0  9992
2 67880  97.2830 107.5721 0002074  90.6399 269.5082 15.33442632 20201
STARLINK-36808          
1 67881U 26035C   26175.07069260  .00018006  00000+0  55849-3 0  9995
2 67881  97.2829 108.2115 0001372  97.5602 262.5797 15.33458154 20299
STARLINK-36817          
1 67882U 26035D   26175.08972564  .00032464  00000+0  10025-2 0  9997
2 67882  97.2850 108.1856 0002121  94.0983 266.0502 15.33477705 20298
STARLINK-36856          
1 67883U 26035E   26175.09244471  .00020419  00000+0  63270-3 0  9996
2 67883  97.2844 108.1822 0001453  88.9126 271.2283 15.33465027 20291
STARLINK-36842          
1 67884U 26035F   26174.39367450  .00018960  00000+0  58793-3 0  9994
2 67884  97.2810 107.4479 0001815  98.0112 262.1337 15.33455811 20181
STARLINK-36826          
1 67885U 26035G   26175.29636758  .00022659  00000+0  70152-3 0  9998
2 67885  97.2843 108.3651 0003041  67.8905 292.2661 15.33467751 20323
STARLINK-36390          
1 67886U 26035H   26175.30453919  .00039322  00000+0  12130-2 0  9993
2 67886  97.2836 108.3522 0002987  69.4602 290.6961 15.33469106 20324
STARLINK-36368          
1 67887U 26035J   26174.55681159  .00019647  00000+0  60922-3 0  9990
2 67887  97.2833 107.6870 0001887  91.6429 268.5030 15.33449624 20214
STARLINK-36801          
1 67888U 26035K   26175.08157534  .00024674  00000+0  76328-3 0  9998
2 67888  97.2843 108.1965 0002013  99.6508 260.4963 15.33478945 20297
STARLINK-36372          
1 67889U 26035L   26175.08700600  .00033711  00000+0  10406-2 0  9993
2 67889  97.2848 108.1898 0002449  94.5272 265.6251 15.33481385 20292
STARLINK-36363          
1 67890U 26035M   26175.29909400  .00020667  00000+0  64044-3 0  9991
2 67890  97.2842 108.3618 0002225  83.1198 277.0298 15.33458018 20322
STARLINK-36816          
1 67891U 26035N   26174.53086319  .00008074  00000+0  25213-3 0  9996
2 67891  97.2845 106.6585 0001688  95.3752 264.7683 15.33445845 20148
STARLINK-36813          
1 67892U 26035P   26174.53234142  .00017590  00000+0  54598-3 0  9997
2 67892  97.2839 107.7202 0001654  92.1327 268.0105 15.33440725 20212
