OBJECT_NAME,OBJECT_ID,EPOCH,MEAN_MOTION,ECCENTRICITY,INCLINATION,RA_OF_ASC_NODE,ARG_OF_PERICENTER,MEAN_ANOMALY,EPHEMERIS_TYPE,CLASSIFICATION_TYPE,NORAD_CAT_ID,ELEMENT_SET_NO,REV_AT_EPOCH,BSTAR,MEAN_MOTION_DOT,MEAN_MOTION_DDOT
STARLINK-36835,2026-034P,2026-06-24T00:36:59.455296,15.30203953,.00010817,53.1604,70.5036,102.6390,257.4732,0,U,67863,999,2031,.39344355E-3,.11313E-3,0
STARLINK-36831,2026-034Q,2026-06-24T00:32:25.796256,15.30211204,.00010827,53.1593,70.4863,99.3267,260.7857,0,U,67864,999,2031,.37772849E-3,.10848E-3,0
STARLINK-36738,2026-034R,2026-06-23T22:49:15.553344,15.30212395,.00009434,53.1570,70.7473,97.0006,263.1102,0,U,67865,999,2030,.56410347E-3,.16391E-3,0
STARLINK-36780,2026-034S,2026-06-24T00:18:45.247680,15.30192787,.0001366,53.1570,70.4245,85.0552,275.0605,0,U,67866,999,2031,.83088428E-3,.24324E-3,0
STARLINK-36761,2026-034T,2026-06-24T00:14:11.788224,15.30199111,.00012659,53.1582,70.4043,96.1629,263.9516,0,U,67867,999,2031,.20225141E-3,.5635E-4,0
STARLINK-36762,2026-034U,2026-06-24T00:08:07.160352,15.30204208,.0000967,53.1579,70.3780,76.8579,283.2529,0,U,67868,999,2031,.10114809E-2,.29722E-3,0
STARLINK-36779,2026-034V,2026-06-24T00:35:42.087552,15.34412357,.00011458,53.1594,67.6652,77.8258,282.2873,0,U,67869,999,2034,.10810531E-2,.3634E-3,0
STARLINK-36770,2026-034W,2026-06-23T23:57:28.787904,15.30210161,.00009392,53.1584,70.3320,131.3877,228.7204,0,U,67870,999,2031,.94011126E-3,.27596E-3,0
STARLINK-36769,2026-034X,2026-06-23T23:54:26.379360,15.30211506,.00006793,53.1562,70.3115,88.5515,271.5563,0,U,67871,999,2031,.47181514E-3,.13645E-3,0
STARLINK-36786,2026-034Y,2026-06-24T00:39:07.144992,15.31697989,.0001222,53.1606,69.8029,81.7412,278.3728,0,U,67872,999,2032,-.49211734E-3,-.15603E-3,0
STARLINK-36783,2026-034Z,2026-06-24T00:32:40.359840,15.34410221,.00009612,53.1584,67.6437,108.4495,251.6612,0,U,67873,999,2035,.93581033E-3,.31384E-3,0
STARLINK-36730,2026-034AA,2026-06-24T00:26:36.944160,15.34402746,.00010597,53.1584,67.6201,86.2775,273.8348,0,U,67874,999,2035,.98228603E-3,.32961E-3,0
STARLINK-36727,2026-034AB,2026-06-23T23:52:04.685952,15.31713512,.00009639,53.1582,69.5949,81.1050,279.0060,0,U,67875,999,2032,.85616519E-3,.26308E-3,0
STARLINK-36743,2026-034AC,2026-06-24T00:44:35.642976,15.30204179,.00011863,53.1600,70.5371,82.1965,277.9170,0,U,67876,999,2031,.99560155E-3,.29248E-3,0
STARLINK-36784,2026-034AD,2026-06-23T23:55:51.167136,15.29374561,.00010166,53.1569,71.0525,79.4217,280.6898,0,U,67877,999,2030,.63736204E-3,.18091E-3,0
STARLINK-36689,2026-034AE,2026-06-24T00:30:54.620928,15.30203458,.0001067,53.1576,70.4770,89.4582,270.6541,0,U,67878,999,2031,.31844635E-3,.9085E-4,0
STARLINK-36818,2026-035A,2026-06-23T18:58:31.506816,15.33456725,.0001597,97.2831,107.8250,96.3033,263.8392,0,U,67879,999,2024,.83697399E-3,.27053E-3,0
STARLINK-36821,2026-035B,2026-06-23T12:38:44.622240,15.33442632,.00020744,97.2830,107.5721,90.6399,269.5082,0,U,67880,999,2020,.54274992E-3,.17487E-3,0
STARLINK-36808,2026-035C,2026-06-24T01:41:47.840640,15.33458154,.00013724,97.2829,108.2115,97.5602,262.5797,0,U,67881,999,2029,.55848741E-3,.18006E-3,0
STARLINK-36817,2026-035D,2026-06-24T02:09:12.295296,15.33477705,.00021217,97.2850,108.1856,94.0983,266.0502,0,U,67882,999,2029,.10025228E-2,.32464E-3,0
STARLINK-36856,2026-035E,2026-06-24T02:13:07.222944,15.33465027,.00014532,97.2844,108.1822,88.9126,271.2283,0,U,67883,999,2029,.63270442E-3,.20419E-3,0
STARLINK-36842,2026-035F,2026-06-23T09:26:53.476800,15.33455811,.00018151,97.2810,107.4479,98.0112,262.1337,0,U,67884,999,2018,.58793089E-3,.1896E-3,0
STARLINK-36826,2026-035G,2026-06-24T07:06:46.158912,15.33467751,.00030414,97.2843,108.3651,67.8905,292.2661,0,U,67885,999,2032,.70152492E-3,.22659E-3,0
STARLINK-36390,2026-035H,2026-06-24T07:18:32.186016,15.33469106,.00029878,97.2836,108.3522,69.4602,290.6961,0,U,67886,999,2032,.12129694E-2,.39322E-3,0
STARLINK-36368,2026-035J,2026-06-23T13:21:48.521376,15.33449624,.0001887,97.2833,107.6870,91.6429,268.5030,0,U,67887,999,2021,.60921769E-3,.19647E-3,0
STARLINK-36801,2026-035K,2026-06-24T01:57:28.109376,15.33478945,.00020137,97.2843,108.1965,99.6508,260.4963,0,U,67888,999,2029,.76327967E-3,.24674E-3,0
STARLINK-36372,2026-035L,2026-06-24T02:05:17.318400,15.33481385,.00024496,97.2848,108.1898,94.5272,265.6251,0,U,67889,999,2029,.10406167E-2,.33711E-3,0
STARLINK-36363,2026-035M,2026-06-24T07:10:41.721600,15.33458018,.00022257,97.2842,108.3618,83.1198,277.0298,0,U,67890,999,2032,.64043608E-3,.20667E-3,0
STARLINK-36816,2026-035N,2026-06-23T12:44:26.579616,15.33445845,.00016888,97.2845,106.6585,95.3752,264.7683,0,U,67891,999,2014,.25213272E-3,.8074E-4,0
STARLINK-36813,2026-035P,2026-06-23T12:46:34.298688,15.33440725,.00016547,97.2839,107.7202,92.1327,268.0105,0,U,67892,999,2021,.54597782E-3,.1759E-3,0
